start=new Date('2021-10-16T00:00:00.000Z').valueOf();
sats=[{"RA_OF_ASC_NODE":"70.8059","ARG_OF_PERICENTER":"65.9902","TIME_SYSTEM":"UTC","MEAN_MOTION_DDOT":"0.0000000000000","INCLINATION":"53.0563","COUNTRY_CODE":"US","OBJECT_NAME":"STARLINK-2097","TLE_LINE1":"1 47377U 21005AE  21288.78678104  .00000884  00000-0  78211-4 0  9991","DECAY_DATE":null,"REF_FRAME":"TEME","OBJECT_TYPE":"PAYLOAD","SEMIMAJOR_AXIS":"6925.350","LAUNCH_DATE":"2021-01-20","PERIOD":"95.592","REV_AT_EPOCH":"4099","MEAN_MOTION_DOT":"0.00000884","MEAN_ELEMENT_THEORY":"SGP4","GP_ID":"187279295","EPOCH":"2021-10-15T18:52:57.881856","FILE":"3165217","SITE":"AFETR","APOAPSIS":"548.056","EPHEMERIS_TYPE":"0","ELEMENT_SET_NO":"999","PERIAPSIS":"546.374","NORAD_CAT_ID":"47377","BSTAR":"0.00007821100000","ECCENTRICITY":"0.00012140","MEAN_ANOMALY":"294.1214","OBJECT_ID":"2021-005AE","RCS_SIZE":"LARGE","TLE_LINE2":"2 47377  53.0563  70.8059 0001214  65.9902 294.1214 15.06399588 40999","CLASSIFICATION_TYPE":"U","CENTER_NAME":"EARTH","MEAN_MOTION":"15.06399588"},{"SEMIMAJOR_AXIS":"6925.411","OBJECT_TYPE":"PAYLOAD","TLE_LINE1":"1 47378U 21005AF  21288.77300765 -.00001542  00000-0 -84706-4 0  9996","DECAY_DATE":null,"OBJECT_NAME":"STARLINK-2098","REF_FRAME":"TEME","COUNTRY_CODE":"US","MEAN_MOTION_DDOT":"0.0000000000000","INCLINATION":"53.0582","ARG_OF_PERICENTER":"89.8347","TIME_SYSTEM":"UTC","RA_OF_ASC_NODE":"30.8521","PERIOD":"95.593","LAUNCH_DATE":"2021-01-20","GP_ID":"187280045","MEAN_ELEMENT_THEORY":"SGP4","MEAN_MOTION_DOT":"-0.00001542","REV_AT_EPOCH":"4155","CENTER_NAME":"EARTH","MEAN_MOTION":"15.06379760","RCS_SIZE":"LARGE","TLE_LINE2":"2 47378  53.0582  30.8521 0001361  89.8347 270.2798 15.06379760 41557","CLASSIFICATION_TYPE":"U","OBJECT_ID":"2021-005AF","MEAN_ANOMALY":"270.2798","ECCENTRICITY":"0.00013610","ELEMENT_SET_NO":"999","PERIAPSIS":"546.333","NORAD_CAT_ID":"47378","BSTAR":"-0.00008470600000","APOAPSIS":"548.218","EPHEMERIS_TYPE":"0","FILE":"3165217","SITE":"AFETR","EPOCH":"2021-10-15T18:33:07.860960"},{"OBJECT_ID":"2021-005AG","ECCENTRICITY":"0.00012380","MEAN_ANOMALY":"262.5661","CENTER_NAME":"EARTH","MEAN_MOTION":"15.06375554","RCS_SIZE":"LARGE","TLE_LINE2":"2 47379  53.0549  31.7121 0001238  97.5469 262.5661 15.06375554 41528","CLASSIFICATION_TYPE":"U","FILE":"3165217","SITE":"AFETR","EPOCH":"2021-10-15T13:57:07.696512","PERIAPSIS":"546.431","ELEMENT_SET_NO":"999","NORAD_CAT_ID":"47379","BSTAR":"-0.00007949200000","APOAPSIS":"548.146","EPHEMERIS_TYPE":"0","GP_ID":"187280297","REV_AT_EPOCH":"4152","MEAN_ELEMENT_THEORY":"SGP4","MEAN_MOTION_DOT":"-0.00001464","PERIOD":"95.594","LAUNCH_DATE":"2021-01-20","DECAY_DATE":null,"TLE_LINE1":"1 47379U 21005AG  21288.58133908 -.00001464  00000-0 -79492-4 0  9998","OBJECT_NAME":"STARLINK-2099","REF_FRAME":"TEME","COUNTRY_CODE":"US","SEMIMAJOR_AXIS":"6925.423","OBJECT_TYPE":"PAYLOAD","ARG_OF_PERICENTER":"97.5469","TIME_SYSTEM":"UTC","RA_OF_ASC_NODE":"31.7121","MEAN_MOTION_DDOT":"0.0000000000000","INCLINATION":"53.0549"},{"MEAN_MOTION_DDOT":"0.0000000000000","INCLINATION":"53.0562","TIME_SYSTEM":"UTC","ARG_OF_PERICENTER":"102.3324","RA_OF_ASC_NODE":"41.0032","SEMIMAJOR_AXIS":"6925.335","OBJECT_TYPE":"PAYLOAD","REF_FRAME":"TEME","OBJECT_NAME":"STARLINK-2100","TLE_LINE1":"1 47380U 21005AH  21288.74258090 -.00001539  00000-0 -84462-4 0  9994","DECAY_DATE":null,"COUNTRY_CODE":"US","LAUNCH_DATE":"2021-01-20","PERIOD":"95.592","MEAN_ELEMENT_THEORY":"SGP4","MEAN_MOTION_DOT":"-0.00001539","REV_AT_EPOCH":"4141","GP_ID":"187281047","BSTAR":"-0.00008446200000","ELEMENT_SET_NO":"999","PERIAPSIS":"546.269","NORAD_CAT_ID":"47380","EPHEMERIS_TYPE":"0","APOAPSIS":"548.131","SITE":"AFETR","FILE":"3165217","EPOCH":"2021-10-15T17:49:18.989760","MEAN_MOTION":"15.06404360","CENTER_NAME":"EARTH","TLE_LINE2":"2 47380  53.0562  41.0032 0001344 102.3324 257.7816 15.06404360 41417","CLASSIFICATION_TYPE":"U","RCS_SIZE":"LARGE","OBJECT_ID":"2021-005AH","ECCENTRICITY":"0.00013440","MEAN_ANOMALY":"257.7816"},{"GP_ID":"187279795","MEAN_ELEMENT_THEORY":"SGP4","MEAN_MOTION_DOT":"0.00000814","REV_AT_EPOCH":"4134","MEAN_MOTION":"15.06389632","CENTER_NAME":"EARTH","TLE_LINE2":"2 47381  53.0569  45.9664 0001436  82.5080 277.6072 15.06389632 41340","CLASSIFICATION_TYPE":"U","RCS_SIZE":"LARGE","OBJECT_ID":"2021-005AJ","MEAN_ANOMALY":"277.6072","ECCENTRICITY":"0.00014360","BSTAR":"0.00007355800000","PERIAPSIS":"546.251","ELEMENT_SET_NO":"999","NORAD_CAT_ID":"47381","EPHEMERIS_TYPE":"0","APOAPSIS":"548.240","SITE":"AFETR","FILE":"3165217","EPOCH":"2021-10-15T18:00:33.746976","SEMIMAJOR_AXIS":"6925.380","OBJECT_TYPE":"PAYLOAD","REF_FRAME":"TEME","TLE_LINE1":"1 47381U 21005AJ  21288.75039059  .00000814  00000-0  73558-4 0  9995","DECAY_DATE":null,"OBJECT_NAME":"STARLINK-2101","COUNTRY_CODE":"US","MEAN_MOTION_DDOT":"0.0000000000000","INCLINATION":"53.0569","TIME_SYSTEM":"UTC","ARG_OF_PERICENTER":"82.5080","RA_OF_ASC_NODE":"45.9664","PERIOD":"95.593","LAUNCH_DATE":"2021-01-20"},{"MEAN_MOTION_DOT":"-0.00001544","MEAN_ELEMENT_THEORY":"SGP4","REV_AT_EPOCH":"4140","GP_ID":"187279546","EPHEMERIS_TYPE":"0","APOAPSIS":"548.350","BSTAR":"-0.00008478800000","PERIAPSIS":"546.193","ELEMENT_SET_NO":"999","NORAD_CAT_ID":"47382","EPOCH":"2021-10-15T17:38:43.148832","SITE":"AFETR","FILE":"3165217","TLE_LINE2":"2 47382  53.0548  41.0253 0001557 103.7117 256.4045 15.06381020 41405","CLASSIFICATION_TYPE":"U","RCS_SIZE":"LARGE","MEAN_MOTION":"15.06381020","CENTER_NAME":"EARTH","MEAN_ANOMALY":"256.4045","ECCENTRICITY":"0.00015570","OBJECT_ID":"2021-005AK","MEAN_MOTION_DDOT":"0.0000000000000","INCLINATION":"53.0548","RA_OF_ASC_NODE":"41.0253","TIME_SYSTEM":"UTC","ARG_OF_PERICENTER":"103.7117","OBJECT_TYPE":"PAYLOAD","SEMIMAJOR_AXIS":"6925.407","COUNTRY_CODE":"US","REF_FRAME":"TEME","TLE_LINE1":"1 47382U 21005AK  21288.73522163 -.00001544  00000-0 -84788-4 0  9997","DECAY_DATE":null,"OBJECT_NAME":"STARLINK-2102","LAUNCH_DATE":"2021-01-20","PERIOD":"95.593"},{"EPOCH":"2021-10-15T14:54:08.192160","SITE":"AFETR","FILE":"3165217","EPHEMERIS_TYPE":"0","APOAPSIS":"548.201","BSTAR":"0.00001546700000","NORAD_CAT_ID":"47383","PERIAPSIS":"546.268","ELEMENT_SET_NO":"999","MEAN_ANOMALY":"259.3605","ECCENTRICITY":"0.00013950","OBJECT_ID":"2021-005AL","TLE_LINE2":"2 47383  53.0563  31.5433 0001395 100.7541 259.3605 15.06393159 41539","CLASSIFICATION_TYPE":"U","RCS_SIZE":"LARGE","MEAN_MOTION":"15.06393159","CENTER_NAME":"EARTH","REV_AT_EPOCH":"4153","MEAN_MOTION_DOT":"-0.00000051","MEAN_ELEMENT_THEORY":"SGP4","GP_ID":"187280797","LAUNCH_DATE":"2021-01-20","PERIOD":"95.593","RA_OF_ASC_NODE":"31.5433","TIME_SYSTEM":"UTC","ARG_OF_PERICENTER":"100.7541","MEAN_MOTION_DDOT":"0.0000000000000","INCLINATION":"53.0563","COUNTRY_CODE":"US","REF_FRAME":"TEME","OBJECT_NAME":"STARLINK-2103","TLE_LINE1":"1 47383U 21005AL  21288.62092815 -.00000051  00000-0  15467-4 0  9991","DECAY_DATE":null,"OBJECT_TYPE":"PAYLOAD","SEMIMAJOR_AXIS":"6925.370"},{"REV_AT_EPOCH":"4139","MEAN_ELEMENT_THEORY":"SGP4","MEAN_MOTION_DOT":"0.00000312","GP_ID":"187280548","FILE":"3165217","SITE":"AFETR","EPOCH":"2021-10-15T15:08:43.482048","NORAD_CAT_ID":"47384","PERIAPSIS":"546.355","ELEMENT_SET_NO":"999","BSTAR":"0.00003982400000","APOAPSIS":"548.113","EPHEMERIS_TYPE":"0","OBJECT_ID":"2021-005AM","ECCENTRICITY":"0.00012690","MEAN_ANOMALY":"268.6132","CENTER_NAME":"EARTH","MEAN_MOTION":"15.06393342","RCS_SIZE":"LARGE","TLE_LINE2":"2 47384  53.0562  41.5002 0001269  91.5002 268.6132 15.06393342 41397","CLASSIFICATION_TYPE":"U","ARG_OF_PERICENTER":"91.5002","TIME_SYSTEM":"UTC","RA_OF_ASC_NODE":"41.5002","INCLINATION":"53.0562","MEAN_MOTION_DDOT":"0.0000000000000","TLE_LINE1":"1 47384U 21005AM  21288.63105882  .00000312  00000-0  39824-4 0  9994","OBJECT_NAME":"STARLINK-2104","DECAY_DATE":null,"REF_FRAME":"TEME","COUNTRY_CODE":"US","SEMIMAJOR_AXIS":"6925.369","OBJECT_TYPE":"PAYLOAD","LAUNCH_DATE":"2021-01-20","PERIOD":"95.593"},{"LAUNCH_DATE":"2021-01-20","PERIOD":"95.593","TIME_SYSTEM":"UTC","ARG_OF_PERICENTER":"100.2491","RA_OF_ASC_NODE":"41.7097","MEAN_MOTION_DDOT":"0.0000000000000","INCLINATION":"53.0558","REF_FRAME":"TEME","TLE_LINE1":"1 47385U 21005AN  21288.58408590 -.00000199  00000-0  55555-5 0  9995","OBJECT_NAME":"STARLINK-2105","DECAY_DATE":null,"COUNTRY_CODE":"US","SEMIMAJOR_AXIS":"6925.373","OBJECT_TYPE":"PAYLOAD","SITE":"AFETR","FILE":"3165217","EPOCH":"2021-10-15T14:01:05.021760","BSTAR":"0.00000555550000","PERIAPSIS":"546.410","ELEMENT_SET_NO":"999","NORAD_CAT_ID":"47385","EPHEMERIS_TYPE":"0","APOAPSIS":"548.067","OBJECT_ID":"2021-005AN","MEAN_ANOMALY":"259.8633","ECCENTRICITY":"0.00011960","MEAN_MOTION":"15.06391922","CENTER_NAME":"EARTH","TLE_LINE2":"2 47385  53.0558  41.7097 0001196 100.2491 259.8633 15.06391922 41387","CLASSIFICATION_TYPE":"U","RCS_SIZE":"LARGE","REV_AT_EPOCH":"4138","MEAN_ELEMENT_THEORY":"SGP4","MEAN_MOTION_DOT":"-0.00000199","GP_ID":"187279296"},{"GP_ID":"187280046","REV_AT_EPOCH":"4141","MEAN_ELEMENT_THEORY":"SGP4","MEAN_MOTION_DOT":"-0.00000928","OBJECT_ID":"2021-005AP","MEAN_ANOMALY":"255.2116","ECCENTRICITY":"0.00015190","CENTER_NAME":"EARTH","MEAN_MOTION":"15.06388731","RCS_SIZE":"LARGE","TLE_LINE2":"2 47386  53.0576  40.9746 0001519 104.9041 255.2116 15.06388731 41415","CLASSIFICATION_TYPE":"U","FILE":"3165217","SITE":"AFETR","EPOCH":"2021-10-15T17:54:38.134944","PERIAPSIS":"546.196","ELEMENT_SET_NO":"999","NORAD_CAT_ID":"47386","BSTAR":"-0.00004344400000","APOAPSIS":"548.300","EPHEMERIS_TYPE":"0","OBJECT_NAME":"STARLINK-2106","TLE_LINE1":"1 47386U 21005AP  21288.74627471 -.00000928  00000-0 -43444-4 0  9999","DECAY_DATE":null,"REF_FRAME":"TEME","COUNTRY_CODE":"US","SEMIMAJOR_AXIS":"6925.383","OBJECT_TYPE":"PAYLOAD","ARG_OF_PERICENTER":"104.9041","TIME_SYSTEM":"UTC","RA_OF_ASC_NODE":"40.9746","INCLINATION":"53.0576","MEAN_MOTION_DDOT":"0.0000000000000","PERIOD":"95.593","LAUNCH_DATE":"2021-01-20"}];
